0 MOLNIYA 1-86
1 22671U 93035A   24146.08274747  .00000982  00000-0  80102-3 0  9997
2 22671  63.0190 184.3914 4890632  18.3633 354.5194  5.63288268392086
0 ATLAS 5 CENTAUR DEB
1 46642U 14055CS  24138.41928360 -.00000141  00000-0  00000-0 0  9995
2 46642  19.9935 233.8823 4463940   7.4640 357.4246  1.83096473 24132
